[{"OBJECT_NAME":"TIANMU-1 21","OBJECT_ID":"2023-208C","EPOCH":"2026-03-09T21:48:13.065120","MEAN_MOTION":15.33041299,"ECCENTRICITY":0.00059807,"INCLINATION":97.4378,"RA_OF_ASC_NODE":187.7048,"ARG_OF_PERICENTER":317.2488,"MEAN_ANOMALY":42.8288,"EPHEMERIS_TYPE":0,"CLASSIFICATION_TYPE":"U","NORAD_CAT_ID":58662,"ELEMENT_SET_NO":999,"REV_AT_EPOCH":12234,"BSTAR":0.00040063782,"MEAN_MOTION_DOT":0.00012722,"MEAN_MOTION_DDOT":0},{"OBJECT_NAME":"STARLINK-33803","OBJECT_ID":"2025-071AA","EPOCH":"2026-03-09T12:13:11.554464","MEAN_MOTION":15.30186695,"ECCENTRICITY":0.00012328,"INCLINATION":53.1591,"RA_OF_ASC_NODE":140.6174,"ARG_OF_PERICENTER":89.2697,"MEAN_ANOMALY":270.8445,"EPHEMERIS_TYPE":0,"CLASSIFICATION_TYPE":"U","NORAD_CAT_ID":63517,"ELEMENT_SET_NO":999,"REV_AT_EPOCH":5274,"BSTAR":0.00068079167,"MEAN_MOTION_DOT":0.0001985,"MEAN_MOTION_DDOT":0}]
